OBJECT_NAME,OBJECT_ID,EPOCH,MEAN_MOTION,ECCENTRICITY,INCLINATION,RA_OF_ASC_NODE,ARG_OF_PERICENTER,MEAN_ANOMALY,EPHEMERIS_TYPE,CLASSIFICATION_TYPE,NORAD_CAT_ID,ELEMENT_SET_NO,REV_AT_EPOCH,BSTAR,MEAN_MOTION_DOT,MEAN_MOTION_DDOT
STARLINK-3958,2022-051C,2026-06-14T10:05:39.033024,15.08834639,.0001324,53.1601,54.8014,85.6389,274.4754,0,U,52535,999,22604,.25412E-4,.116E-5,0
STARLINK-3964,2022-051D,2026-06-14T10:00:21.215808,15.08831452,.0001241,53.1596,54.8149,89.6784,270.4350,0,U,52536,999,22604,.41414E-4,.371E-5,0
STARLINK-3897,2022-051E,2026-06-14T09:28:31.571040,15.08830111,.0001478,53.1608,54.7240,93.9953,266.1207,0,U,52537,999,22604,.53911E-4,.57E-5,0
STARLINK-3933,2022-051F,2026-06-14T12:00:02.998944,15.12350891,.000193,53.1599,54.4075,79.5850,88.2554,0,U,52538,999,563,.35861E-2,.6315E-3,0
STARLINK-3757,2022-051G,2026-06-14T00:17:26.523456,15.08833854,.0001305,53.1600,56.6355,98.9369,261.1770,0,U,52539,999,22598,.21249857E-4,.5E-6,0
STARLINK-3940,2022-051H,2026-06-14T12:44:39.545664,15.08815375,.000141,53.1607,54.3440,95.0094,265.1058,0,U,52540,999,22606,-.74049E-4,-.1466E-4,0
STARLINK-3845,2022-051J,2026-06-14T10:18:12.714048,15.08836730,.0001269,53.1592,59.7603,81.4826,278.6309,0,U,52541,999,22597,.14069E-3,.1952E-4,0
STARLINK-3937,2022-051K,2026-06-14T12:00:02.998944,15.12218362,.0002526,53.1600,54.4134,81.4338,165.7046,0,U,52542,999,583,.38136E-2,.66965E-3,0
STARLINK-3926,2022-051L,2026-06-14T09:39:09.398304,15.08831521,.000128,53.1590,54.8837,94.9561,265.1577,0,U,52543,999,22604,.25249E-4,.114E-5,0
STARLINK-3944,2022-051M,2026-06-14T10:07:38.411040,15.08841994,.0001429,53.1598,59.8041,96.1877,263.9277,0,U,52544,999,22597,-.10839E-3,-.2013E-4,0
STARLINK-3948,2022-051P,2026-06-14T12:00:02.998944,15.12511059,.0000735,53.1601,54.1558,142.7398,270.5781,0,U,52546,999,584,.36642E-2,.64837E-3,0
STARLINK-3931,2022-051R,2026-06-13T23:19:08.738688,15.08835218,.0001347,53.1604,56.8173,94.8338,265.2807,0,U,52548,999,22598,.10683E-4,-.118E-5,0
STARLINK-3935,2022-051S,2026-06-14T09:17:57.274080,15.08834366,.0001326,53.1609,54.9491,90.9243,269.1900,0,U,52549,999,22604,.29077E-4,.175E-5,0
STARLINK-3965,2022-051T,2026-06-13T23:29:44.954592,15.08830109,.00013778,53.1608,56.7842,91.3879,268.7270,0,U,52550,999,22598,-.8317509E-5,-.42E-5,0
STARLINK-3969,2022-051U,2026-06-13T22:04:57.994752,15.08826675,.0001429,53.1618,57.0503,88.1559,271.9596,0,U,52551,999,22597,-.42551E-5,-.356E-5,0
STARLINK-3966,2022-051V,2026-06-13T23:35:04.848000,15.08819636,.00013762,53.1592,56.9217,96.2625,263.8523,0,U,52552,999,22598,.14321428E-3,.1991E-4,0
STARLINK-3858,2022-051W,2026-06-14T12:00:02.998944,15.96340667,.0000992,53.2193,38.0645,120.4265,250.7518,0,U,52553,999,594,.22584E-2,.958758E-2,.43034E-3
STARLINK-3770,2022-051X,2026-06-14T10:02:20.287104,15.08834468,.0001029,53.1587,59.8104,91.2113,268.8997,0,U,52554,999,22597,.64687E-4,.742E-5,0
STARLINK-3943,2022-051AA,2026-06-14T10:16:14.847168,15.08834397,.0001397,53.1612,54.7656,89.1544,270.9608,0,U,52557,999,22605,.31349E-4,.211E-5,0
STARLINK-3953,2022-051AC,2026-06-14T08:58:07.002624,15.08833792,.0001223,53.1585,45.1931,85.3719,274.7412,0,U,52559,999,22617,.73292E-4,.879E-5,0
STARLINK-3956,2022-051AD,2026-06-14T08:36:53.197920,15.08832964,.0001435,53.1605,45.0796,100.7561,259.3592,0,U,52560,999,22617,.21661E-4,.57E-6,0
STARLINK-3955,2022-051AE,2026-06-14T09:46:26.279904,15.08832334,.0001266,53.1593,59.8597,87.8854,272.2283,0,U,52561,999,22597,.66478E-4,.77E-5,0
STARLINK-3957,2022-051AF,2026-06-14T05:14:29.561280,15.09489371,.00016418,53.1596,45.7011,68.8386,291.2781,0,U,52562,999,22615,.49809132E-2,.81339E-3,0
STARLINK-3942,2022-051AG,2026-06-14T00:19:25.867776,15.08831378,.00012265,53.1598,61.6296,89.2217,270.8915,0,U,52563,999,22591,-.6905834E-5,-.398E-5,0
STARLINK-3959,2022-051AH,2026-06-14T09:42:31.099104,15.08836187,.0001352,53.1593,59.8830,87.7308,272.3838,0,U,52564,999,22597,.86443E-4,.1088E-4,0
STARLINK-3911,2022-051AJ,2026-06-14T08:31:35.669280,15.08828373,.0001284,53.1605,45.0950,91.7960,268.3179,0,U,52565,999,22617,-.86356E-5,-.425E-5,0
STARLINK-3938,2022-051AK,2026-06-13T23:37:02.298432,15.08839479,.00016628,53.1613,61.7616,65.0268,295.0896,0,U,52566,999,22591,.11050514E-3,.1471E-4,0
STARLINK-3929,2022-051AL,2026-06-14T12:00:02.998944,15.12813718,.0000698,53.1605,44.3818,30.7186,106.2063,0,U,52567,999,583,.42245E-2,.75545E-3,0
STARLINK-3930,2022-051AM,2026-06-14T09:39:41.342976,15.09322997,.0001026,53.1609,44.8775,102.6264,257.4842,0,U,52568,999,22618,.36751E-2,.59481E-3,0
STARLINK-3927,2022-051AN,2026-06-13T22:43:22.528992,15.08834538,.0001292,53.1601,46.9301,88.9991,271.1149,0,U,52569,999,22611,.26114E-4,.128E-5,0
STARLINK-3901,2022-051AQ,2026-06-14T04:59:00.628224,15.09228699,.00015684,53.1602,45.7529,119.7039,240.4109,0,U,52574,999,22615,.3015101E-2,.48546E-3,0
STARLINK-3932,2022-051AS,2026-06-14T09:20:39.606720,15.08832818,.0001201,53.1590,44.9394,84.9931,275.1198,0,U,52576,999,22618,-.10011E-3,-.1881E-4,0
STARLINK-3836,2022-051AT,2026-06-14T10:34:08.128704,15.08832582,.000136,53.1602,59.7108,88.7408,271.3740,0,U,52577,999,22598,-.12419E-4,-.486E-5,0
STARLINK-3833,2022-051AU,2026-06-14T10:39:25.767936,15.08835375,.000131,53.1594,59.6947,84.2571,275.8570,0,U,52578,999,22598,.31947E-4,.22E-5,0
STARLINK-3893,2022-051AV,2026-06-14T12:00:02.998944,15.37261202,.0000352,53.2183,57.4346,298.5397,58.9659,0,U,52579,999,533,.31241E-2,.117112E-2,0
STARLINK-3919,2022-051AW,2026-06-14T10:30:12.789792,15.08834297,.0001275,53.1605,59.7318,89.6375,270.4762,0,U,52580,999,22598,.63809E-4,.728E-5,0
STARLINK-3915,2022-051AX,2026-06-13T23:41:40.256736,15.08835318,.0001319,53.1592,46.7470,87.6982,272.4160,0,U,52581,999,22612,.86484066E-4,.1089E-4,0
STARLINK-3895,2022-051AZ,2026-06-14T09:08:40.951392,15.08836698,.0001798,53.1579,44.9760,97.5249,262.5947,0,U,52583,999,22618,.96291E-4,.1245E-4,0
STARLINK-3922,2022-051BA,2026-06-14T09:19:17.027328,15.08841605,.000151,53.1609,44.9414,89.1529,270.9635,0,U,52584,999,22618,.14948E-3,.2092E-4,0
STARLINK-3906,2022-051BB,2026-06-14T08:52:46.895808,15.08830759,.0001204,53.1582,44.9883,90.8826,269.2303,0,U,52585,999,22618,.24328E-4,.99E-6,0
STARLINK-3910,2022-051BC,2026-06-14T09:03:23.357088,15.08830080,.0001324,53.1590,44.9936,88.0900,272.0243,0,U,52586,999,22618,.23546E-4,.87E-6,0
STARLINK-3867,2022-051BD,2026-06-14T08:32:57.710400,15.08824002,.000152,53.1611,44.9444,94.6413,265.4752,0,U,52587,999,22618,-.17672E-4,-.569E-5,0
STARLINK-3917,2022-051BE,2026-06-14T08:47:29.614272,15.08828454,.0001506,53.1596,45.0463,92.9119,267.2045,0,U,52588,999,22618,.28901E-4,.172E-5,0
STARLINK-4019,2022-052A,2026-06-14T09:42:27.910080,15.08832475,.0001195,53.1600,209.8717,87.8926,272.2202,0,U,52598,999,22618,-.34328E-6,-.293E-5,0
STARLINK-4024,2022-052B,2026-06-14T12:00:02.998944,15.12007927,.0002122,53.1593,204.5338,93.5914,141.0675,0,U,52599,999,574,.38955E-2,.68017E-3,0
STARLINK-4026,2022-052C,2026-06-14T08:52:47.179200,15.08833806,.0001213,53.1589,205.0254,86.6297,273.4833,0,U,52600,999,22625,.21876E-4,.6E-6,0
STARLINK-4027,2022-052D,2026-06-14T09:03:22.246848,15.08832942,.000113,53.1586,204.9965,105.1409,254.9708,0,U,52601,999,22625,-.4824E-4,-.1055E-4,0
STARLINK-4012,2022-052E,2026-06-14T08:58:05.157984,15.08835396,.0001157,53.1598,205.0089,86.2583,273.8540,0,U,52602,999,22625,.14302E-5,-.265E-5,0
STARLINK-4016,2022-052F,2026-06-14T12:00:02.998944,15.14977278,.0001018,53.1595,204.3805,61.7834,15.9400,0,U,52603,999,584,.34448E-2,.65326E-3,0
STARLINK-4013,2022-052G,2026-06-14T10:22:52.421088,15.08833514,.0001087,53.1586,204.7443,86.8766,273.2350,0,U,52604,999,22546,.24822E-4,.107E-5,0
STARLINK-4000,2022-052H,2026-06-14T10:42:05.990688,15.08832126,.0001248,53.1589,209.4633,77.6758,282.4373,0,U,52605,999,22539,.67803E-5,-.18E-5,0
STARLINK-3928,2022-052J,2026-06-14T10:17:35.219040,15.08841731,.0001281,53.1584,204.7627,84.9585,275.1552,0,U,52606,999,22546,.50276E-4,.512E-5,0
STARLINK-3947,2022-052K,2026-06-14T09:27:56.803680,15.08835203,.0001241,53.1587,209.9270,80.9618,279.1514,0,U,52607,999,22537,.23896E-4,.92E-6,0
STARLINK-3979,2022-052L,2026-06-14T10:06:58.756032,15.08831632,.0001171,53.1590,204.7959,90.3793,269.7333,0,U,52608,999,22546,.29723E-4,.185E-5,0
STARLINK-3997,2022-052M,2026-06-14T09:51:04.305600,15.08826599,.0001092,53.1586,204.7976,90.1855,269.9262,0,U,52609,999,22546,.58302E-4,.64E-5,0
STARLINK-3998,2022-052N,2026-06-14T09:31:51.826368,15.08834965,.0001101,53.1595,209.9040,82.5556,277.5560,0,U,52610,999,22538,.11206E-4,-.11E-5,0
STARLINK-3980,2022-052P,2026-06-14T09:21:16.020000,15.08837763,.0001178,53.1590,209.9371,83.4848,276.6278,0,U,52611,999,22538,.28942E-4,.173E-5,0
STARLINK-4002,2022-052Q,2026-06-14T10:01:40.950048,15.08830327,.0001269,53.1591,204.8123,86.5603,273.5534,0,U,52612,999,22546,.14347E-4,-.6E-6,0
STARLINK-3982,2022-052S,2026-06-14T04:38:41.111232,15.53811570,.00012832,53.2065,128.0386,2.2647,357.8371,0,U,52614,999,22652,.13183915E-2,.86619E-3,0
STARLINK-4011,2022-052T,2026-06-14T09:15:58.413600,15.08833383,.0001208,53.1591,209.9542,88.3485,271.7645,0,U,52615,999,22537,.11309E-4,-.108E-5,0
STARLINK-3996,2022-052V,2026-06-14T09:20:36.865248,15.08829122,.0001233,53.1581,194.9389,74.5687,285.5440,0,U,52617,999,22558,-.30554E-5,-.337E-5,0
STARLINK-3983,2022-052W,2026-06-14T09:25:54.603840,15.08831147,.0001106,53.1584,194.9238,82.7849,277.3269,0,U,52618,999,22558,.43801E-4,.409E-5,0
STARLINK-3741,2022-052X,2026-06-14T09:15:17.904096,15.08838364,.000111,53.1582,194.9462,82.0174,278.0943,0,U,52619,999,22558,.79614E-4,.979E-5,0
STARLINK-3975,2022-052Y,2026-06-14T09:10:40.746720,15.08836976,.0001167,53.1589,209.9704,76.6418,283.4703,0,U,52620,999,22537,-.39792E-4,-.921E-5,0
STARLINK-3984,2022-052Z,2026-06-14T09:04:43.607136,15.08838223,.0001465,53.1593,194.9899,74.3029,285.8124,0,U,52621,999,22558,.67502E-4,.786E-5,0
STARLINK-4008,2022-052AA,2026-06-14T09:53:03.844320,15.08831175,.0001177,53.1594,209.8382,83.3268,276.7857,0,U,52622,999,22538,-.13042E-5,-.309E-5,0
